KAITUO 1B               
1 40912U 15049P   18020.49820650  .00001144  00000-0  58784-4 0  9996
2 40912  97.4504  29.9509 0015844 159.0755 353.4544 15.18385009129252
TIANWANG 1C (TW-1C)     
1 40926U 15051B   18020.87048185  .00005955  00000-0  12070-3 0  9992
2 40926  97.2029  63.9872 0012503  94.7746 352.8478 15.46691339130520
TIANWANG 1B (TW-1B)     
1 40927U 15051C   18020.52636631  .00005885  00000-0  12418-3 0  9992
2 40927  97.2124  63.5565 0012414 106.6693  27.9779 15.45514777130395
TIANWANG 1A (TW-1A)     
1 40928U 15051D   18020.54910756  .00002619  00000-0  72453-4 0  9996
2 40928  97.2031  57.3924 0013582 128.7422   2.5100 15.37814251130089
LAPAN-A2 (IO-86)        
1 40931U 15052B   18018.31122922  .00000754  00000-0  15940-4 0  9999
2 40931   6.0024 138.8331 0013728  45.9950 314.1778 14.76562800124817
LQSAT                   
1 40958U 15057A   18020.89625025  .00000002  00000-0  80303-5 0  9993
2 40958  97.9569  97.1656 0019690  89.1114 271.2334 14.73012202123163
CHUBUSAT-2              
1 41338U 16012B   18020.57953772  .00000330  00000-0  19155-4 0  9996
2 41338  31.0021 171.4133 0013795  51.0481 309.1382 14.99906812105654
CHUBUSAT-3              
1 41339U 16012C   18020.54544308  .00000278  00000-0  15002-4 0  9993
2 41339  31.0064 170.4404 0013430  58.2379 301.9564 15.00098793105636
OUFTI-1                 
1 41458U 16025C   18020.71445292  .00000336  00000-0  22551-4 0  9992
2 41458  98.1559  75.5749 0169720 282.1762  76.0461 15.04161018 95264
E-ST@R-II               
1 41459U 16025D   18020.36421390  .00001574  00000-0  87324-4 0  9991
2 41459  98.1559  75.0965 0171360 283.7864  74.4352 15.03932212 95209
AAUSAT 4                
1 41460U 16025E   18020.87319660  .00001857  00000-0  10175-3 0  9998
2 41460  98.1515  75.9299 0162106 278.9503  79.3386 15.05187529 95325
NUSAT 1 (LO-87)         
1 41557U 16033B   18020.30936716  .00001253  00000-0  48658-4 0  9997
2 41557  97.4473 104.7572 0012910 326.1217  33.9196 15.27925456 91578
BEESAT-4                
1 41619U 16040W   18020.72425099  .00001410  00000-0  65326-4 0  9993
2 41619  97.4355  85.7967 0012535  34.4517 325.7529 15.21676321 75669
PRATHAM                 
1 41783U 16059A   18020.74034510  .00000063  00000-0  21669-4 0  9996
2 41783  98.1391  84.5284 0033348 196.4112 163.6013 14.62895457 70404
ALSAT 1N                
1 41789U 16059G   18020.82138877  .00000069  00000-0  22286-4 0  9994
2 41789  98.1397  85.5355 0028084 188.1804 171.8936 14.64120448 70456
NAYIF-1 (EO-88)         
1 42017U 17008BX  18020.58001432  .00001551  00000-0  67065-4 0  9994
2 42017  97.4683  86.4089 0006844 165.6056 194.5378 15.23960863 51588
LILACSAT-1              
1 42725U 98067ME  18020.50895450  .00018342  00000-0  20378-3 0  9998
2 42725  51.6381  27.5189 0005996  41.5019 318.6430 15.62947805 37380
MAX VALIER SAT          
1 42778U 17036P   18020.76291182  .00000989  00000-0  47688-4 0  9995
2 42778  97.4246  82.7880 0011782 220.3653 139.6709 15.20987020 32098
FOX-1B (AO-91)          
1 43017U 17073E   18020.28504858  .00001036  00000-0  86507-4 0  9994
2 43017  97.6978 317.6896 0261398  33.3164 328.4197 14.77849542  9264
FOX-1D (AO-92)          
1 43137U 18004AC  18020.55288995  .00001052  00000-0  48682-4 0  9993
2 43137  97.5548  82.7149 0008089 254.2407 105.7937 15.22374694  1251
